(single closed outline)
(PureCutCNC reference program for the QtPlasmaC simulator check, issue #954.)
(Hand-written from the QtPlasmaC manual for LinuxCNC 2.9; each stanza names)
(the manual section it comes from. See ../README.md.)

(Manual: Preamble and Postamble Codes)
G21 G40 G49 G64 P0.1 G80 G90 G92.1 G94 G97
(Manual: Paused Motion)
M52 P1
(Manual: Automatic Material Handling - select, wait, then take the feed rate)
(from the material; the three codes must come in this order)
M190 P1
M66 P3 L3 Q1
F#<_hal[plasmac.cut-feed-rate]>

(100 x 60 rectangle, cut clockwise, pierced 5 mm outside the part)
G0 X15 Y50
(Manual: Mandatory Codes - begin cut)
M3 $0 S1
G1 X20 Y50
G1 X20 Y80
G1 X120 Y80
G1 X120 Y20
G1 X20 Y20
G1 X20 Y50
(Manual: Mandatory Codes - end cut)
M5 $0

(Manual: Preamble and Postamble Codes)
G0 X0 Y0
G21 G40 G49 G64 P0.1 G80 G90 G92.1 G94 G97
M2
